NORAD_CAT_ID,OBJECT_NAME,OBJECT_TYPE,EPOCH,MEAN_MOTION,ECCENTRICITY,INCLINATION,RA_OF_ASC_NODE,ARG_OF_PERICENTER,MEAN_ANOMALY,BSTAR,MEAN_MOTION_DOT,MEAN_MOTION_DDOT,TLE_LINE0,TLE_LINE1,TLE_LINE2,SEMIMAJOR_AXIS,PERIOD,APOGEE,PERIGEE,DECAYED
54809.0,STARLINK-5414,PAYLOAD,2024-04-24 14:43:56,15.08859522,0.0001311,53.2173,219.6068,82.9077,277.2064,0.00011937,1.613e-05,0.0,0 STARLINK-5414,1 54809U 22175BD  24115.61385221  .00001613  00000-0  11937-3 0  9999,2 54809  53.2173 219.6068 0001311  82.9077 277.2064 15.08859522 74701,6917.821,95.436,540.593,538.779,0.0
54809.0,STARLINK-5414,PAYLOAD,2024-04-25 12:59:21,15.08845597,0.0001732,53.2164,215.4497,70.4227,289.6952,2.5135e-05,1.12e-06,0.0,0 STARLINK-5414,1 54809U 22175BD  24116.54122106  .00000112  00000-0  25135-4 0  9992,2 54809  53.2164 215.4497 0001732  70.4227 289.6952 15.08845597 74842,6917.863,95.437,540.926,538.53,0.0
54809.0,STARLINK-5414,PAYLOAD,2024-04-26 12:50:08,15.08842967,0.0001686,53.2173,210.9836,116.0986,244.018,5.7798e-05,6.32e-06,0.0,0 STARLINK-5414,1 54809U 22175BD  24117.53482401  .00000632  00000-0  57798-4 0  9996,2 54809  53.2173 210.9836 0001686 116.0986 244.0180 15.08842967 77159,6917.871,95.437,540.903,538.57,0.0
54809.0,STARLINK-5414,PAYLOAD,2024-04-27 12:40:53,15.0887755,0.0001446,53.2168,206.53,88.4241,271.6917,0.00050868,7.825e-05,0.0,0 STARLINK-5414,1 54809U 22175BD  24118.52839808  .00007825  00000-0  50868-3 0  9994,2 54809  53.2168 206.5300 0001446  88.4241 271.6917 15.08877550 75147,6917.766,95.435,540.631,538.63,0.0
54809.0,STARLINK-5414,PAYLOAD,2024-04-28 12:31:41,15.0882547,0.0001411,53.216,202.0642,72.6144,287.5002,-0.0005721,-9.378e-05,0.0,0 STARLINK-5414,1 54809U 22175BD  24119.52201372 -.00009378  00000-0 -57210-3 0  9999,2 54809  53.2160 202.0642 0001411  72.6144 287.5002 15.08825470 75299,6917.925,95.438,540.766,538.814,0.0
54809.0,STARLINK-5414,PAYLOAD,2024-04-28 22:04:01,15.08821992,0.0001497,53.2164,200.2823,78.8189,281.2972,-0.00015888,-2.814e-05,0.0,0 STARLINK-5414,1 54809U 22175BD  24119.91945819 -.00002814  00000-0 -15888-3 0  9996,2 54809  53.2164 200.2823 0001497  78.8189 281.2972 15.08821992 77514,6917.935,95.439,540.836,538.765,0.0
54809.0,STARLINK-5414,PAYLOAD,2024-04-29 12:22:29,15.08843815,0.0001473,53.2154,197.6064,68.9184,291.1966,0.0011557,0.00018155,0.0,0 STARLINK-5414,1 54809U 22175BD  24120.51562380  .00018155  00000-0  11557-2 0  9993,2 54809  53.2154 197.6064 0001473  68.9184 291.1966 15.08843815 75449,6917.869,95.437,540.753,538.715,0.0
54809.0,STARLINK-5414,PAYLOAD,2024-04-29 21:54:48,15.08848077,0.0001391,53.2148,195.8221,70.2344,289.8798,0.00064796,0.00010042,0.0,0 STARLINK-5414,1 54809U 22175BD  24120.91306245  .00010042  00000-0  64796-3 0  9994,2 54809  53.2148 195.8221 0001391  70.2344 289.8798 15.08848077 77668,6917.856,95.437,540.683,538.758,0.0
54809.0,STARLINK-5414,PAYLOAD,2024-04-30 04:16:21,15.08849919,0.0001468,53.2154,194.6335,76.1746,283.941,0.00053326,8.211e-05,0.0,0 STARLINK-5414,1 54809U 22175BD  24121.17802138  .00008211  00000-0  53326-3 0  9997,2 54809  53.2154 194.6335 0001468  76.1746 283.9410 15.08849919 75541,6917.85,95.437,540.731,538.7,0.0
54809.0,STARLINK-5414,PAYLOAD,2024-04-30 12:13:16,15.08846096,0.0001505,53.2154,193.1459,72.5826,287.5331,0.00035482,5.364e-05,0.0,0 STARLINK-5414,1 54809U 22175BD  24121.50922265  .00005364  00000-0  35482-3 0  9997,2 54809  53.2154 193.1459 0001505  72.5826 287.5331 15.08846096 77753,6917.862,95.437,540.768,538.686,0.0
54809.0,STARLINK-5414,PAYLOAD,2024-05-01 21:36:22,15.08848821,0.0001497,53.2155,186.9021,68.7281,291.3871,0.00054762,8.44e-05,0.0,0 STARLINK-5414,1 54809U 22175BD  24122.90026396  .00008440  00000-0  54762-3 0  9992,2 54809  53.2155 186.9021 0001497  68.7281 291.3871 15.08848821 77964,6917.853,95.437,540.754,538.683,0.0
54809.0,STARLINK-5414,PAYLOAD,2024-05-02 10:19:27,15.08842807,0.0001419,53.2148,184.5215,75.6191,284.4959,0.00016679,2.368e-05,0.0,0 STARLINK-5414,1 54809U 22175BD  24123.43018387  .00002368  00000-0  16679-3 0  9990,2 54809  53.2148 184.5215 0001419  75.6191 284.4959 15.08842807 75883,6917.872,95.437,540.718,538.755,0.0
54809.0,STARLINK-5414,PAYLOAD,2024-05-03 10:10:14,15.08846225,0.0001458,53.214,180.0598,81.1082,279.0075,0.00024465,3.608e-05,0.0,0 STARLINK-5414,1 54809U 22175BD  24124.42378189  .00003608  00000-0  24465-3 0  9999,2 54809  53.2140 180.0598 0001458  81.1082 279.0075 15.08846225 78198,6917.861,95.437,540.735,538.718,0.0
54809.0,STARLINK-5414,PAYLOAD,2024-05-03 21:17:56,15.08839678,0.0001468,53.2142,177.9785,80.8868,279.229,7.0311e-05,8.31e-06,0.0,0 STARLINK-5414,1 54809U 22175BD  24124.88746410  .00000831  00000-0  70311-4 0  9992,2 54809  53.2142 177.9785 0001468  80.8868 279.2290 15.08839678 78265,6917.881,95.438,540.762,538.731,0.0
54809.0,STARLINK-5414,PAYLOAD,2024-05-04 03:39:29,15.08833188,0.0001627,53.2179,176.7898,89.5361,270.5818,2.9058e-05,1.74e-06,0.0,0 STARLINK-5414,1 54809U 22175BD  24125.15242935  .00000174  00000-0  29058-4 0  9998,2 54809  53.2179 176.7898 0001627  89.5361 270.5818 15.08833188 76143,6917.901,95.438,540.892,538.641,0.0
54809.0,STARLINK-5414,PAYLOAD,2024-05-04 13:11:49,15.08827605,0.0001509,53.2157,175.0046,91.535,268.5815,-6.228e-05,-1.279e-05,0.0,0 STARLINK-5414,1 54809U 22175BD  24125.54987511 -.00001279  00000-0 -62280-4 0  9990,2 54809  53.2157 175.0046 0001509  91.5350 268.5815 15.08827605 76204,6917.918,95.438,540.827,538.739,0.0
54809.0,STARLINK-5414,PAYLOAD,2024-05-05 09:51:49,15.08840429,0.0001437,53.2157,171.1391,90.7534,269.3623,0.00014277,1.985e-05,0.0,0 STARLINK-5414,1 54809U 22175BD  24126.41099408  .00001985  00000-0  14277-3 0  9990,2 54809  53.2157 171.1391 0001437  90.7534 269.3623 15.08840429 76338,6917.879,95.438,540.738,538.75,0.0
54809.0,STARLINK-5414,PAYLOAD,2024-05-05 19:24:08,15.08847209,0.0001414,53.2161,169.3554,90.281,269.8344,0.00021993,3.215e-05,0.0,0 STARLINK-5414,1 54809U 22175BD  24126.80843178  .00003215  00000-0  21993-3 0  9995,2 54809  53.2161 169.3554 0001414  90.2810 269.8344 15.08847209 78554,6917.858,95.437,540.702,538.745,0.0
54809.0,STARLINK-5414,PAYLOAD,2024-05-06 09:42:36,15.08870287,0.0001393,53.2153,166.6787,90.7512,269.364,0.00091727,0.00014353,0.0,0 STARLINK-5414,1 54809U 22175BD  24127.40458714  .00014353  00000-0  91727-3 0  9997,2 54809  53.2153 166.6787 0001393  90.7512 269.3640 15.08870287 76489,6917.788,95.436,540.616,538.689,0.0
54809.0,STARLINK-5414,PAYLOAD,2024-05-06 19:14:54,15.08863527,0.0001261,53.2142,164.8954,86.6463,273.4674,0.00039559,6.018e-05,0.0,0 STARLINK-5414,1 54809U 22175BD  24127.80202284  .00006018  00000-0  39559-3 0  9994,2 54809  53.2142 164.8954 0001261  86.6463 273.4674 15.08863527 76545,6917.808,95.436,540.546,538.801,0.0
54809.0,STARLINK-5414,PAYLOAD,2024-05-07 09:33:22,15.08869136,0.0001344,53.2142,162.2195,87.333,272.7816,0.00040161,6.114e-05,0.0,0 STARLINK-5414,1 54809U 22175BD  24128.39817360  .00006114  00000-0  40161-3 0  9994,2 54809  53.2142 162.2195 0001344  87.3330 272.7816 15.08869136 78798,6917.791,95.436,540.586,538.727,0.0
54809.0,STARLINK-5414,PAYLOAD,2024-05-08 01:27:13,15.08847913,0.0001604,53.2142,159.2461,86.2286,273.889,-8.359e-05,-1.618e-05,0.0,0 STARLINK-5414,1 54809U 22175BD  24129.06057562 -.00001618  00000-0 -83590-4 0  9999,2 54809  53.2142 159.2461 0001604  86.2286 273.8890 15.08847913 76732,6917.856,95.437,540.831,538.612,0.0
54809.0,STARLINK-5414,PAYLOAD,2024-05-08 10:59:33,15.08834611,0.0001543,53.2146,157.4607,80.4432,279.6735,-0.00021298,-3.675e-05,0.0,0 STARLINK-5414,1 54809U 22175BD  24129.45802630 -.00003675  00000-0 -21298-3 0  9997,2 54809  53.2146 157.4607 0001543  80.4432 279.6735 15.08834611 76798,6917.897,95.438,540.829,538.694,0.0
54809.0,STARLINK-5414,PAYLOAD,2024-05-08 18:56:29,15.08836225,0.0001396,53.215,155.9728,86.3369,273.7783,-0.00010865,-2.017e-05,0.0,0 STARLINK-5414,1 54809U 22175BD  24129.78922514 -.00002017  00000-0 -10865-3 0  9994,2 54809  53.2150 155.9728 0001396  86.3369 273.7783 15.08836225 79008,6917.892,95.438,540.723,538.791,0.0
54809.0,STARLINK-5414,PAYLOAD,2024-05-09 09:14:57,15.08843795,0.0001483,53.2152,153.2949,91.3822,268.734,-3.0883e-05,-7.8e-06,0.0,0 STARLINK-5414,1 54809U 22175BD  24130.38538389 -.00000780  00000-0 -30883-4 0  9993,2 54809  53.2152 153.2949 0001483  91.3822 268.7340 15.08843795 76935,6917.869,95.437,540.76,538.708,0.0
54809.0,STARLINK-5414,PAYLOAD,2024-05-10 01:08:49,15.08838988,0.0001373,53.2149,150.3216,89.0351,271.0799,0.00033559,5.057e-05,0.0,0 STARLINK-5414,1 54809U 22175BD  24131.04779062  .00005057  00000-0  33559-3 0  9994,2 54809  53.2149 150.3216 0001373  89.0351 271.0799 15.08838988 77030,6917.883,95.438,540.698,538.799,0.0
54809.0,STARLINK-5414,PAYLOAD,2024-05-10 10:41:07,15.08847578,0.0001389,53.2143,148.5378,89.0222,271.093,0.00045483,6.96e-05,0.0,0 STARLINK-5414,1 54809U 22175BD  24131.44522921  .00006960  00000-0  45483-3 0  9991,2 54809  53.2143 148.5378 0001389  89.0222 271.0930 15.08847578 79254,6917.857,95.437,540.683,538.761,0.0
54809.0,STARLINK-5414,PAYLOAD,2024-05-11 04:10:22,15.08847506,0.0001439,53.2144,145.2672,87.9651,272.1506,0.00025468,3.768e-05,0.0,0 STARLINK-5414,1 54809U 22175BD  24132.17386735  .00003768  00000-0  25468-3 0  9997,2 54809  53.2144 145.2672 0001439  87.9651 272.1506 15.08847506 77200,6917.857,95.437,540.718,538.727,0.0
54809.0,STARLINK-5414,PAYLOAD,2024-05-11 10:31:54,15.08885549,0.0001538,53.2145,144.0762,95.5217,264.5951,0.0013282,0.0002094,0.0,0 STARLINK-5414,1 54809U 22175BD  24132.43882063  .00020940  00000-0  13282-2 0  9992,2 54809  53.2145 144.0762 0001538  95.5217 264.5951 15.08885549 77243,6917.741,95.435,540.67,538.542,0.0
54809.0,STARLINK-5414,PAYLOAD,2024-05-12 04:01:09,15.08842264,0.0001476,53.216,140.8063,108.4243,251.691,8.7358e-05,1.103e-05,0.0,0 STARLINK-5414,1 54809U 22175BD  24133.16746556  .00001103  00000-0  87358-4 0  9996,2 54809  53.2160 140.8063 0001476 108.4243 251.6910 15.08842264 77353,6917.873,95.437,540.76,538.717,0.0
